ORBCOMM FM20            
1 25416U 98046D   24216.78166407  .00001396  00000+0  52932-3 0  9991
2 25416  44.9932 242.7159 0002152 279.1826  80.8778 14.35517695358624
ORBCOMM FM15            
1 25418U 98046F   24216.79135561  .00001986  00000+0  72077-3 0  9998
2 25418  44.9962 242.0282 0002086 190.7417 169.3386 14.36316362358570
ORBCOMM FM13            
1 25420U 98046H   24216.82596560  .00001734  00000+0  64314-3 0  9991
2 25420  44.9968 246.2254 0002410 144.4945 215.6063 14.35730769357595
ORBCOMM FM21            
1 25475U 98053A   24216.64288249  .00002172  00000+0  79488-3 0  9996
2 25475  45.0097 331.5436 0001353 208.2417 151.8358 14.35628941351587
ORBCOMM FM22            
1 25476U 98053B   24216.72628518  .00002595  00000+0  92891-3 0  9995
2 25476  45.0093 328.0648 0000752 125.0736 235.0182 14.36218495351593
ORBCOMM FM23            
1 25477U 98053C   24216.66825132  .00001843  00000+0  68130-3 0  9994
2 25477  45.0104 333.8192 0000701 159.0375 201.0501 14.35673618351730
